{
  "type": "FeatureCollection",
  "features": [
    {
      "type": "Feature",
      "properties": {
        "norad_id": 67081,
        "name": "STARLINK-35864",
        "group": "last-30-days",
        "lat": -63.65013949165404,
        "lon": 178.14521879485778,
        "alt_km": 307.26212966573894,
        "timestamp": "2025-12-21T09:37:21.375721+00:00",
        "meta_object_name": "STARLINK-35864",
        "meta_object_id": "2025-298G",
        "meta_epoch": "2025-12-21T04:00:01.998720",
        "meta_mean_motion": 15.904367,
        "meta_eccentricity": 0.0004038,
        "meta_inclination": 69.9983,
        "meta_ra_of_asc_node": 226.1677,
        "meta_arg_of_pericenter": 275.7268,
        "meta_mean_anomaly": 111.3083,
        "meta_ephemeris_type": 0,
        "meta_classification_type": "U",
        "meta_norad_cat_id": 67081,
        "meta_element_set_no": 999,
        "meta_rev_at_epoch": 233,
        "meta_bstar": -0.0052889,
        "meta_mean_motion_dot": -0.01613475,
        "meta_mean_motion_ddot": 0.00071989,
        "tle_line1": "1 67081U 25298G   25355.16668980 -.01613475  71989-3 -52889-2 0  9992",
        "tle_line2": "2 67081  69.9983 226.1677 0004038 275.7268 111.3083 15.90436700  2331"
      },
      "geometry": {
        "type": "Point",
        "coordinates": [
          178.14521879485778,
          -63.65013949165404
        ]
      }
    },
    {
      "type": "Feature",
      "properties": {
        "norad_id": 67082,
        "name": "STARLINK-36035",
        "group": "last-30-days",
        "lat": -62.48527290627566,
        "lon": -178.88598568852458,
        "alt_km": 307.0679138463165,
        "timestamp": "2025-12-21T09:37:21.375731+00:00",
        "meta_object_name": "STARLINK-36035",
        "meta_object_id": "2025-298H",
        "meta_epoch": "2025-12-21T04:00:01.998720",
        "meta_mean_motion": 15.90498355,
        "meta_eccentricity": 0.0004077,
        "meta_inclination": 69.9981,
        "meta_ra_of_asc_node": 226.1656,
        "meta_arg_of_pericenter": 276.5724,
        "meta_mean_anomaly": 112.1948,
        "meta_ephemeris_type": 0,
        "meta_classification_type": "U",
        "meta_norad_cat_id": 67082,
        "meta_element_set_no": 999,
        "meta_rev_at_epoch": 233,
        "meta_bstar": -0.0052976,
        "meta_mean_motion_dot": -0.01621126,
        "meta_mean_motion_ddot": 0.00072666,
        "tle_line1": "1 67082U 25298H   25355.16668980 -.01621126  72666-3 -52976-2 0  9995",
        "tle_line2": "2 67082  69.9981 226.1656 0004077 276.5724 112.1948 15.90498355  2339"
      },
      "geometry": {
        "type": "Point",
        "coordinates": [
          -178.88598568852458,
          -62.48527290627566
        ]
      }
    },
    {
      "type": "Feature",
      "properties": {
        "norad_id": 67083,
        "name": "STARLINK-36170",
        "group": "last-30-days",
        "lat": -61.20564674738274,
        "lon": -176.0268302896097,
        "alt_km": 306.9468382600353,
        "timestamp": "2025-12-21T09:37:21.375743+00:00",
        "meta_object_name": "STARLINK-36170",
        "meta_object_id": "2025-298J",
        "meta_epoch": "2025-12-21T04:00:01.998720",
        "meta_mean_motion": 15.90564906,
        "meta_eccentricity": 0.0004033,
        "meta_inclination": 69.998,
        "meta_ra_of_asc_node": 226.1634,
        "meta_arg_of_pericenter": 275.3696,
        "meta_mean_anomaly": 115.2058,
        "meta_ephemeris_type": 0,
        "meta_classification_type": "U",
        "meta_norad_cat_id": 67083,
        "meta_element_set_no": 999,
        "meta_rev_at_epoch": 233,
        "meta_bstar": -0.0053246,
        "meta_mean_motion_dot": -0.0163469,
        "meta_mean_motion_ddot": 0.00073843,
        "tle_line1": "1 67083U 25298J   25355.16668980 -.01634690  73843-3 -53246-2 0  9995",
        "tle_line2": "2 67083  69.9980 226.1634 0004033 275.3696 115.2058 15.90564906  2334"
      },
      "geometry": {
        "type": "Point",
        "coordinates": [
          -176.0268302896097,
          -61.20564674738274
        ]
      }
    },
    {
      "type": "Feature",
      "properties": {
        "norad_id": 67084,
        "name": "STARLINK-36166",
        "group": "last-30-days",
        "lat": -59.963370547290666,
        "lon": -173.56922429279746,
        "alt_km": 306.7553413488449,
        "timestamp": "2025-12-21T09:37:21.375756+00:00",
        "meta_object_name": "STARLINK-36166",
        "meta_object_id": "2025-298K",
        "meta_epoch": "2025-12-21T04:00:01.998720",
        "meta_mean_motion": 15.90623648,
        "meta_eccentricity": 0.0004047,
        "meta_inclination": 69.9978,
        "meta_ra_of_asc_node": 226.1612,
        "meta_arg_of_pericenter": 277.5313,
        "meta_mean_anomaly": 114.7323,
        "meta_ephemeris_type": 0,
        "meta_classification_type": "U",
        "meta_norad_cat_id": 67084,
        "meta_element_set_no": 999,
        "meta_rev_at_epoch": 227,
        "meta_bstar": -0.0053263,
        "meta_mean_motion_dot": -0.01640063,
        "meta_mean_motion_ddot": 0.00074336,
        "tle_line1": "1 67084U 25298K   25355.16668980 -.01640063  74336-3 -53263-2 0  9994",
        "tle_line2": "2 67084  69.9978 226.1612 0004047 277.5313 114.7323 15.90623648  2274"
      },
      "geometry": {
        "type": "Point",
        "coordinates": [
          -173.56922429279746,
          -59.963370547290666
        ]
      }
    },
    {
      "type": "Feature",
      "properties": {
        "norad_id": 67085,
        "name": "STARLINK-35794",
        "group": "last-30-days",
        "lat": -58.69954461415797,
        "lon": -171.3263412687782,
        "alt_km": 306.6324873266576,
        "timestamp": "2025-12-21T09:37:21.375766+00:00",
        "meta_object_name": "STARLINK-35794",
        "meta_object_id": "2025-298L",
        "meta_epoch": "2025-12-21T04:00:01.998720",
        "meta_mean_motion": 15.90687792,
        "meta_eccentricity": 0.0004012,
        "meta_inclination": 69.998,
        "meta_ra_of_asc_node": 226.1592,
        "meta_arg_of_pericenter": 276.6696,
        "meta_mean_anomaly": 117.2498,
        "meta_ephemeris_type": 0,
        "meta_classification_type": "U",
        "meta_norad_cat_id": 67085,
        "meta_element_set_no": 999,
        "meta_rev_at_epoch": 233,
        "meta_bstar": -0.0053577,
        "meta_mean_motion_dot": -0.01654885,
        "meta_mean_motion_ddot": 0.00075632,
        "tle_line1": "1 67085U 25298L   25355.16668980 -.01654885  75632-3 -53577-2 0  9990",
        "tle_line2": "2 67085  69.9980 226.1592 0004012 276.6696 117.2498 15.90687792  2339"
      },
      "geometry": {
        "type": "Point",
        "coordinates": [
          -171.3263412687782,
          -58.69954461415797
        ]
      }
    },
    {
      "type": "Feature",
      "properties": {
        "norad_id": 67086,
        "name": "STARLINK-35841",
        "group": "last-30-days",
        "lat": -57.183791895989685,
        "lon": -168.91763934420925,
        "alt_km": 306.26135569135386,
        "timestamp": "2025-12-21T09:37:21.375778+00:00",
        "meta_object_name": "STARLINK-35841",
        "meta_object_id": "2025-298M",
        "meta_epoch": "2025-12-21T04:00:01.998720",
        "meta_mean_motion": 15.90757598,
        "meta_eccentricity": 0.0004269,
        "meta_inclination": 69.9978,
        "meta_ra_of_asc_node": 226.1566,
        "meta_arg_of_pericenter": 275.2905,
        "meta_mean_anomaly": 120.5486,
        "meta_ephemeris_type": 0,
        "meta_classification_type": "U",
        "meta_norad_cat_id": 67086,
        "meta_element_set_no": 999,
        "meta_rev_at_epoch": 233,
        "meta_bstar": -0.005247,
        "meta_mean_motion_dot": -0.01626945,
        "meta_mean_motion_ddot": 0.00073335,
        "tle_line1": "1 67086U 25298M   25355.16668980 -.01626945  73335-3 -52470-2 0  9996",
        "tle_line2": "2 67086  69.9978 226.1566 0004269 275.2905 120.5486 15.90757598  2336"
      },
      "geometry": {
        "type": "Point",
        "coordinates": [
          -168.91763934420925,
          -57.183791895989685
        ]
      }
    },
    {
      "type": "Feature",
      "properties": {
        "norad_id": 67087,
        "name": "STARLINK-35842",
        "group": "last-30-days",
        "lat": -56.013241178085394,
        "lon": -167.2306102638296,
        "alt_km": 306.2950258465107,
        "timestamp": "2025-12-21T09:37:21.375788+00:00",
        "meta_object_name": "STARLINK-35842",
        "meta_object_id": "2025-298N",
        "meta_epoch": "2025-12-21T04:00:01.998720",
        "meta_mean_motion": 15.90812055,
        "meta_eccentricity": 0.0004033,
        "meta_inclination": 69.9977,
        "meta_ra_of_asc_node": 226.155,
        "meta_arg_of_pericenter": 277.3659,
        "meta_mean_anomaly": 119.9365,
        "meta_ephemeris_type": 0,
        "meta_classification_type": "U",
        "meta_norad_cat_id": 67087,
        "meta_element_set_no": 999,
        "meta_rev_at_epoch": 233,
        "meta_bstar": -0.0053991,
        "meta_mean_motion_dot": -0.01677983,
        "meta_mean_motion_ddot": 0.00077695,
        "tle_line1": "1 67087U 25298N   25355.16668980 -.01677983  77695-3 -53991-2 0  9997",
        "tle_line2": "2 67087  69.9977 226.1550 0004033 277.3659 119.9365 15.90812055  2335"
      },
      "geometry": {
        "type": "Point",
        "coordinates": [
          -167.2306102638296,
          -56.013241178085394
        ]
      }
    }
  ]
}